{
  "type": "FeatureCollection",
  "features": [
    {
      "type": "Feature",
      "properties": {
        "norad_id": 38091,
        "name": "BEIDOU-2 G5 (C05)",
        "group": "gnss",
        "lat": -3.1187850664351022,
        "lon": -11.086645678146828,
        "alt_km": 35748.31888303419,
        "timestamp": "2025-12-27T12:55:14.746175+00:00",
        "meta_object_name": "BEIDOU-2 G5 (C05)",
        "meta_object_id": "2012-008A",
        "meta_epoch": "2025-12-27T03:00:28.131840",
        "meta_mean_motion": 1.00270221,
        "meta_eccentricity": 0.00132036,
        "meta_inclination": 3.1427,
        "meta_ra_of_asc_node": 70.6556,
        "meta_arg_of_pericenter": 232.1204,
        "meta_mean_anomaly": 256.9211,
        "meta_ephemeris_type": 0,
        "meta_classification_type": "U",
        "meta_norad_cat_id": 38091,
        "meta_element_set_no": 999,
        "meta_rev_at_epoch": 5064,
        "meta_bstar": 0,
        "meta_mean_motion_dot": 7.8e-07,
        "meta_mean_motion_ddot": 0,
        "tle_line1": "1 38091U 12008A   25361.12532560  .00000078  00000+0  00000+0 0  9996",
        "tle_line2": "2 38091   3.1427  70.6556 0013203 232.1204 256.9211  1.00270221 50648"
      },
      "geometry": {
        "type": "Point",
        "coordinates": [
          -11.086645678146828,
          -3.1187850664351022
        ]
      }
    },
    {
      "type": "Feature",
      "properties": {
        "norad_id": 38250,
        "name": "BEIDOU-2 M3 (C11)",
        "group": "gnss",
        "lat": 47.075790606070655,
        "lon": 83.96185028790804,
        "alt_km": 21584.707983513606,
        "timestamp": "2025-12-27T12:55:14.746188+00:00",
        "meta_object_name": "BEIDOU-2 M3 (C11)",
        "meta_object_id": "2012-018A",
        "meta_epoch": "2025-12-26T06:54:56.796768",
        "meta_mean_motion": 1.86230094,
        "meta_eccentricity": 0.002406,
        "meta_inclination": 55.9085,
        "meta_ra_of_asc_node": 310.7027,
        "meta_arg_of_pericenter": 275.5278,
        "meta_mean_anomaly": 84.2034,
        "meta_ephemeris_type": 0,
        "meta_classification_type": "U",
        "meta_norad_cat_id": 38250,
        "meta_element_set_no": 999,
        "meta_rev_at_epoch": 9272,
        "meta_bstar": 0,
        "meta_mean_motion_dot": -5.6e-07,
        "meta_mean_motion_ddot": 0,
        "tle_line1": "1 38250U 12018A   25360.28815737 -.00000056  00000+0  00000+0 0  9997",
        "tle_line2": "2 38250  55.9085 310.7027 0024060 275.5278  84.2034  1.86230094 92724"
      },
      "geometry": {
        "type": "Point",
        "coordinates": [
          83.96185028790804,
          47.075790606070655
        ]
      }
    },
    {
      "type": "Feature",
      "properties": {
        "norad_id": 38251,
        "name": "BEIDOU-2 M4 (C12)",
        "group": "gnss",
        "lat": 13.624270975370633,
        "lon": 120.39722862142715,
        "alt_km": 21545.5006808063,
        "timestamp": "2025-12-27T12:55:14.746200+00:00",
        "meta_object_name": "BEIDOU-2 M4 (C12)",
        "meta_object_id": "2012-018B",
        "meta_epoch": "2025-12-26T05:17:08.086272",
        "meta_mean_motion": 1.86229697,
        "meta_eccentricity": 0.0015168,
        "meta_inclination": 55.8099,
        "meta_ra_of_asc_node": 309.9329,
        "meta_arg_of_pericenter": 279.7877,
        "meta_mean_anomaly": 80.0472,
        "meta_ephemeris_type": 0,
        "meta_classification_type": "U",
        "meta_norad_cat_id": 38251,
        "meta_element_set_no": 999,
        "meta_rev_at_epoch": 9272,
        "meta_bstar": 0,
        "meta_mean_motion_dot": -5.5e-07,
        "meta_mean_motion_ddot": 0,
        "tle_line1": "1 38251U 12018B   25360.22023248 -.00000055  00000+0  00000+0 0  9999",
        "tle_line2": "2 38251  55.8099 309.9329 0015168 279.7877  80.0472  1.86229697 92721"
      },
      "geometry": {
        "type": "Point",
        "coordinates": [
          120.39722862142715,
          13.624270975370633
        ]
      }
    },
    {
      "type": "Feature",
      "properties": {
        "norad_id": 38652,
        "name": "SES-5 (EGNOS/PRN 136)",
        "group": "gnss",
        "lat": -0.02610546845297604,
        "lon": -64.9563370833373,
        "alt_km": 35778.768615354675,
        "timestamp": "2025-12-27T12:55:14.746212+00:00",
        "meta_object_name": "SES-5 (EGNOS/PRN 136)",
        "meta_object_id": "2012-036A",
        "meta_epoch": "2025-12-26T08:51:38.739168",
        "meta_mean_motion": 1.00269218,
        "meta_eccentricity": 0.0001956,
        "meta_inclination": 0.0564,
        "meta_ra_of_asc_node": 306.7412,
        "meta_arg_of_pericenter": 332.3205,
        "meta_mean_anomaly": 313.9407,
        "meta_ephemeris_type": 0,
        "meta_classification_type": "U",
        "meta_norad_cat_id": 38652,
        "meta_element_set_no": 999,
        "meta_rev_at_epoch": 4272,
        "meta_bstar": 0,
        "meta_mean_motion_dot": 5.5e-07,
        "meta_mean_motion_ddot": 0,
        "tle_line1": "1 38652U 12036A   25360.36919837  .00000055  00000+0  00000+0 0  9996",
        "tle_line2": "2 38652   0.0564 306.7412 0001956 332.3205 313.9407  1.00269218 42724"
      },
      "geometry": {
        "type": "Point",
        "coordinates": [
          -64.9563370833373,
          -0.02610546845297604
        ]
      }
    },
    {
      "type": "Feature",
      "properties": {
        "norad_id": 38775,
        "name": "BEIDOU-2 M6 (C14)",
        "group": "gnss",
        "lat": -1.9924666106706865,
        "lon": 67.26733094993895,
        "alt_km": 21497.60385796719,
        "timestamp": "2025-12-27T12:55:14.746226+00:00",
        "meta_object_name": "BEIDOU-2 M6 (C14)",
        "meta_object_id": "2012-050B",
        "meta_epoch": "2025-12-24T07:41:05.368128",
        "meta_mean_motion": 1.86230801,
        "meta_eccentricity": 0.00114872,
        "meta_inclination": 56.388,
        "meta_ra_of_asc_node": 68.6832,
        "meta_arg_of_pericenter": 343.1884,
        "meta_mean_anomaly": 16.8281,
        "meta_ephemeris_type": 0,
        "meta_classification_type": "U",
        "meta_norad_cat_id": 38775,
        "meta_element_set_no": 999,
        "meta_rev_at_epoch": 9005,
        "meta_bstar": 0,
        "meta_mean_motion_dot": -2.4e-07,
        "meta_mean_motion_ddot": 0,
        "tle_line1": "1 38775U 12050B   25358.32020102 -.00000024  00000+0  00000+0 0  9996",
        "tle_line2": "2 38775  56.3880  68.6832 0011487 343.1884  16.8281  1.86230801 90056"
      },
      "geometry": {
        "type": "Point",
        "coordinates": [
          67.26733094993895,
          -1.9924666106706865
        ]
      }
    },
    {
      "type": "Feature",
      "properties": {
        "norad_id": 38779,
        "name": "GSAT-10 (GAGAN/PRN 128)",
        "group": "gnss",
        "lat": 0.051407955452049514,
        "lon": 13.073589600881899,
        "alt_km": 35789.09889798565,
        "timestamp": "2025-12-27T12:55:14.746239+00:00",
        "meta_object_name": "GSAT-10 (GAGAN/PRN 128)",
        "meta_object_id": "2012-051B",
        "meta_epoch": "2025-12-26T17:34:19.233984",
        "meta_mean_motion": 1.00270579,
        "meta_eccentricity": 0.00020538,
        "meta_inclination": 0.0583,
        "meta_ra_of_asc_node": 261.5664,
        "meta_arg_of_pericenter": 219.4554,
        "meta_mean_anomaly": 321.0592,
        "meta_ephemeris_type": 0,
        "meta_classification_type": "U",
        "meta_norad_cat_id": 38779,
        "meta_element_set_no": 999,
        "meta_rev_at_epoch": 4836,
        "meta_bstar": 0,
        "meta_mean_motion_dot": -1.43e-06,
        "meta_mean_motion_ddot": 0,
        "tle_line1": "1 38779U 12051B   25360.73216706 -.00000143  00000+0  00000+0 0  9998",
        "tle_line2": "2 38779   0.0583 261.5664 0002053 219.4554 321.0592  1.00270579 48366"
      },
      "geometry": {
        "type": "Point",
        "coordinates": [
          13.073589600881899,
          0.051407955452049514
        ]
      }
    },
    {
      "type": "Feature",
      "properties": {
        "norad_id": 38833,
        "name": "GPS BIIF-3  (PRN 24)",
        "group": "gnss",
        "lat": 8.915324488306881,
        "lon": -36.031668847283406,
        "alt_km": 20291.51286038853,
        "timestamp": "2025-12-27T12:55:14.746251+00:00",
        "meta_object_name": "GPS BIIF-3  (PRN 24)",
        "meta_object_id": "2012-053A",
        "meta_epoch": "2025-12-26T07:30:08.502624",
        "meta_mean_motion": 2.00565043,
        "meta_eccentricity": 0.0176105,
        "meta_inclination": 53.56,
        "meta_ra_of_asc_node": 150.6829,
        "meta_arg_of_pericenter": 64.189,
        "meta_mean_anomaly": 297.6002,
        "meta_ephemeris_type": 0,
        "meta_classification_type": "U",
        "meta_norad_cat_id": 38833,
        "meta_element_set_no": 999,
        "meta_rev_at_epoch": 9597,
        "meta_bstar": 0,
        "meta_mean_motion_dot": 9.8e-07,
        "meta_mean_motion_ddot": 0,
        "tle_line1": "1 38833U 12053A   25360.31259841  .00000098  00000+0  00000+0 0  9990",
        "tle_line2": "2 38833  53.5600 150.6829 0176105  64.1890 297.6002  2.00565043 95976"
      },
      "geometry": {
        "type": "Point",
        "coordinates": [
          -36.031668847283406,
          8.915324488306881
        ]
      }
    }
  ]
}